      2.10          N: GNSS NAV DATA                        RINEX VERSION / TYPE
fic2rin                                 03/28/2020 00:19:54 PGM / RUN BY / DATE
                                                            END OF HEADER
32 20  3 27 18  0  0.0 2.461904659867e-04 8.867573342286e-12 0.000000000000e+00
    1.300000000000e+01-2.368750000000e+01 4.530903016012e-09 1.380568175006e+00
   -1.305714249611e-06 3.765820874833e-03 1.000799238682e-05 5.153700416565e+03
    4.968000000000e+05-3.725290298462e-08-3.551934375181e-03 9.499490261078e-08
    9.572776651772e-01 1.811875000000e+02-2.489502301832e+00-8.037120492614e-09
   -3.468001599044e-10 1.000000000000e+00 2.098000000000e+03 0.000000000000e+00
    2.400000000000e+00 0.000000000000e+00 4.656612873077e-10 1.300000000000e+01
    4.896000000000e+05 4.000000000000e+00
31 20  3 27 18  0  0.0-3.217207267880e-05-2.501110429876e-12 0.000000000000e+00
    3.700000000000e+01 1.049062500000e+02 4.537331855227e-09-2.661054049982e+00
    5.297362804413e-06 9.530594339594e-03 9.119510650635e-06 5.153556083679e+03
    4.968000000000e+05-1.676380634308e-07 1.077721012640e+00-9.685754776001e-08
    9.579958043477e-01 2.055625000000e+02 1.236746584717e-01-7.984618305688e-09
    3.185846989029e-10 1.000000000000e+00 2.098000000000e+03 0.000000000000e+00
    2.400000000000e+00 0.000000000000e+00-1.350417733192e-08 3.700000000000e+01
    4.896000000000e+05 4.000000000000e+00
29 20  3 27 18  0  0.0-6.680469959974e-05-9.094947017729e-12 0.000000000000e+00
    7.900000000000e+01-7.478125000000e+01 3.777657354592e-09 1.029617653422e+00
   -4.105269908905e-06 1.239356235601e-03 9.767711162567e-06 5.153612684250e+03
    4.968000000000e+05-2.793967723846e-08-3.069482403463e+00-7.450580596924e-09
    9.860343029151e-01 2.041562500000e+02 1.869903774621e+00-7.691034648178e-09
   -3.485859485754e-10 1.000000000000e+00 2.098000000000e+03 0.000000000000e+00
    2.400000000000e+00 0.000000000000e+00-1.024454832077e-08 7.900000000000e+01
    4.896000000000e+05 4.000000000000e+00
27 20  3 27 18  0  0.0-2.504126168787e-04-1.068656274583e-11 0.000000000000e+00
    5.200000000000e+01-8.265625000000e+01 4.116242886610e-09 6.452302870828e-01
   -4.084780812263e-06 8.112661773339e-03 8.676201105118e-06 5.153663465500e+03
    4.968000000000e+05 3.725290298462e-09-3.139104291380e+00 1.154839992523e-07
    9.785751835272e-01 2.181562500000e+02 5.256211905981e-01-7.989261356232e-09
   -4.743054710124e-10 1.000000000000e+00 2.098000000000e+03 0.000000000000e+00
    2.400000000000e+00 0.000000000000e+00 1.396983861923e-09 5.200000000000e+01
    4.896000000000e+05 4.000000000000e+00
24 20  3 27 18  0  0.0-1.089321449399e-05-4.547473508865e-13 0.000000000000e+00
    5.800000000000e+01 8.271875000000e+01 5.014494588113e-09-1.298095038915e+00
    4.323199391365e-06 9.586761821993e-03 8.733943104744e-06 5.153664335251e+03
    4.968000000000e+05 2.197921276093e-07 9.912616793306e-01-3.539025783539e-08
    9.368778357853e-01 1.969375000000e+02 6.668011151029e-01-8.261415549690e-09
    2.989410235221e-10 1.000000000000e+00 2.098000000000e+03 0.000000000000e+00
    3.400000000000e+00 0.000000000000e+00 2.793967723846e-09 5.800000000000e+01
    4.896000000000e+05 4.000000000000e+00
15 20  3 27 18  0  0.0-2.420595847070e-04 2.614797267597e-12 0.000000000000e+00
    3.200000000000e+01-3.640625000000e+01 5.277005522747e-09-2.106027282890e-01
   -1.778826117516e-06 1.219271053560e-02 8.990988135338e-06 5.153658836365e+03
    4.968000000000e+05-1.303851604462e-08-9.952546074350e-02 1.657754182816e-07
    9.286160512831e-01 1.911875000000e+02 8.702707630933e-01-8.597858135302e-09
   -3.178703834345e-10 1.000000000000e+00 2.098000000000e+03 0.000000000000e+00
    2.400000000000e+00 0.000000000000e+00-1.117587089539e-08 3.200000000000e+01
    4.896000000000e+05 4.000000000000e+00
16 20  3 27 18  0  0.0-1.398161984980e-04-4.320099833421e-12 0.000000000000e+00
    6.900000000000e+01-5.406250000000e+00 4.660194115791e-09 1.536541257328e+00
   -1.434236764908e-07 1.152484747581e-02 3.220513463020e-06 5.153730878830e+03
    4.968000000000e+05-1.881271600723e-07 2.187052905429e+00 1.564621925354e-07
    9.790309132301e-01 3.320000000000e+02 6.185042015826e-01-8.413564744457e-09
   -1.846505485794e-10 1.000000000000e+00 2.098000000000e+03 0.000000000000e+00
    2.400000000000e+00 0.000000000000e+00-1.071020960808e-08 6.900000000000e+01
    4.896000000000e+05 4.000000000000e+00
11 20  3 27 18  0  0.0-3.219912759960e-04 1.080024958355e-11 0.000000000000e+00
    3.600000000000e+01-2.878125000000e+01 5.277005522747e-09-1.990388635310e+00
   -1.393258571625e-06 1.587975560687e-02 1.150742173195e-05 5.153719480515e+03
    4.968000000000e+05-2.421438694000e-08-2.554622546512e+00 4.190951585770e-07
    9.124692319604e-01 1.290937500000e+02 1.970555076637e+00-8.269987335310e-09
   -1.607209803882e-11 1.000000000000e+00 2.098000000000e+03 0.000000000000e+00
    2.400000000000e+00 0.000000000000e+00-1.257285475731e-08 3.600000000000e+01
    4.896000000000e+05 4.000000000000e+00
22 20  3 27 18  0  0.0-7.853503338993e-04 2.273736754432e-13 0.000000000000e+00
    7.900000000000e+01 3.093750000000e+00 5.550945504876e-09-2.587872779974e-01
    2.160668373108e-07 7.204346591607e-03 4.604458808899e-06 5.153530706406e+03
    4.968000000000e+05-1.993030309677e-07-1.127085759806e+00-8.754432201385e-08
    9.297873746791e-01 2.765000000000e+02-1.198845902915e+00-8.710719979308e-09
    1.396486740707e-10 1.000000000000e+00 2.098000000000e+03 0.000000000000e+00
    2.400000000000e+00 0.000000000000e+00-1.816079020500e-08 7.900000000000e+01
    4.896000000000e+05 4.000000000000e+00
14 20  3 27 18  0  0.0-2.352194860578e-05 2.501110429876e-12 0.000000000000e+00
    7.900000000000e+01-1.400000000000e+01 4.470900516667e-09 3.968499318097e-01
   -8.437782526016e-07 1.115951873362e-02 1.055188477039e-05 5.153630107880e+03
    4.968000000000e+05-1.396983861923e-07 8.368556748551e-02 5.029141902924e-08
    9.609454816822e-01 1.778437500000e+02-1.926161916124e+00-8.116052351872e-09
   -3.646580466142e-10 1.000000000000e+00 2.098000000000e+03 0.000000000000e+00
    2.400000000000e+00 0.000000000000e+00-9.778887033463e-09 7.900000000000e+01
    4.896000000000e+05 4.000000000000e+00
12 20  3 27 18  0  0.0 1.359581947327e-04-4.320099833421e-12 0.000000000000e+00
    9.500000000000e+01-8.125000000000e+00 4.530903016012e-09-2.914520882179e+00
   -3.390014171600e-07 8.095379336737e-03 2.618879079819e-06 5.153722574234e+03
    4.968000000000e+05 1.974403858185e-07 2.168179205344e+00-1.452863216400e-07
    9.787707844519e-01 3.358125000000e+02 1.126919436261e+00-8.203555996750e-09
   -7.678891285216e-11 1.000000000000e+00 2.098000000000e+03 0.000000000000e+00
    3.400000000000e+00 0.000000000000e+00-1.257285475731e-08 9.500000000000e+01
    4.896000000000e+05 4.000000000000e+00
25 20  3 27 18  0  0.0-6.762798875570e-06 2.160049916711e-12 0.000000000000e+00
    7.100000000000e+01 1.406250000000e+00 4.770913013391e-09 3.112043494612e+00
   -2.048909664154e-08 9.243690408766e-03 2.326443791389e-06 5.153571695328e+03
    4.968000000000e+05 1.862645149231e-08 2.099979077769e+00-2.011656761169e-07
    9.660822698214e-01 3.348437500000e+02 9.159901802677e-01-8.284630802412e-09
   -6.678849629467e-11 1.000000000000e+00 2.098000000000e+03 0.000000000000e+00
    2.400000000000e+00 0.000000000000e+00 5.587935447693e-09 7.100000000000e+01
    4.896000000000e+05 4.000000000000e+00
19 20  3 27 18  0  0.0-1.800577156246e-04 5.115907697473e-12 0.000000000000e+00
    4.800000000000e+01-8.287500000000e+01 3.894447933674e-09-3.028122035975e+00
   -4.224479198456e-06 9.268441936001e-03 9.153038263321e-06 5.153683290482e+03
    4.968000000000e+05 1.657754182816e-07-3.035429946687e+00 1.676380634308e-08
    9.825395949694e-01 2.128750000000e+02 1.578593487052e+00-7.624246151884e-09
   -2.846547141543e-10 1.000000000000e+00 2.098000000000e+03 0.000000000000e+00
    2.400000000000e+00 0.000000000000e+00-1.536682248116e-08 4.800000000000e+01
    4.896000000000e+05 4.000000000000e+00
21 20  3 27 18  0  0.0-2.208445221186e-05 5.115907697473e-12 0.000000000000e+00
    7.200000000000e+01 2.981250000000e+01 4.323394372444e-09 2.942621177332e+00
    1.536682248116e-06 2.478663437068e-02 1.029297709465e-05 5.153541528702e+03
    4.968000000000e+05 2.942979335785e-07-2.156624749197e+00 8.940696716309e-08
    9.522957766558e-01 1.700000000000e+02-1.345454005434e+00-7.552814605045e-09
    2.675111429129e-10 1.000000000000e+00 2.098000000000e+03 0.000000000000e+00
    2.400000000000e+00 0.000000000000e+00-1.024454832077e-08 7.200000000000e+01
    4.896000000000e+05 4.000000000000e+00
17 20  3 27 18  0  0.0 2.391156740487e-04 6.366462912410e-12 0.000000000000e+00
    5.700000000000e+01-7.821875000000e+01 3.970522531058e-09 5.608427310423e-01
   -4.092231392860e-06 1.327704684809e-02 9.171664714813e-06 5.153675182343e+03
    4.968000000000e+05-1.601874828339e-07-3.081129450620e+00-8.754432201385e-08
    9.844025684783e-01 2.215312500000e+02-1.645493686103e+00-8.004261981068e-09
   -4.075169747177e-10 1.000000000000e+00 2.098000000000e+03 0.000000000000e+00
    2.400000000000e+00 0.000000000000e+00-1.117587089539e-08 5.700000000000e+01
    4.896000000000e+05 4.000000000000e+00
28 20  3 27 18  0  0.0 7.298104465008e-04-2.842170943040e-12 0.000000000000e+00
    3.900000000000e+01-4.656250000000e+00 4.582333729736e-09 1.369419269009e+00
   -6.854534149170e-07 1.851689396426e-02 2.967193722725e-06 5.153662414551e+03
    4.968000000000e+05 3.539025783539e-08 2.190824129762e+00-4.451721906662e-07
    9.780431099813e-01 3.322500000000e+02-1.412099225178e+00-8.309274686072e-09
   -6.285976121851e-11 1.000000000000e+00 2.098000000000e+03 0.000000000000e+00
    4.850000000000e+00 0.000000000000e+00-1.117587089539e-08 3.900000000000e+01
    4.896000000000e+05 4.000000000000e+00
